JILIN-1 10              
1 43946U 19005E   26068.92438560  .00008535  00000+0  35024-3 0  9997
2 43946  97.4731 167.8564 0006920 265.2171  94.8276 15.24458740394188
TEVEL2-8                
1 63239U 25052AF  26068.66815443  .00019130  00000+0  69304-3 0  9994
2 63239  97.4055 324.2923 0008031 124.9191 235.2804 15.28392908 54807
